[{"OBJECT_NAME":"CELESTIS-17 & SHERPA-FX1","OBJECT_ID":"2021-006CB","EPOCH":"2026-03-09T15:26:05.078112","MEAN_MOTION":15.30994801,"ECCENTRICITY":0.000663,"INCLINATION":97.2397,"RA_OF_ASC_NODE":112.1052,"ARG_OF_PERICENTER":178.1385,"MEAN_ANOMALY":181.9882,"EPHEMERIS_TYPE":0,"CLASSIFICATION_TYPE":"U","NORAD_CAT_ID":47486,"ELEMENT_SET_NO":999,"REV_AT_EPOCH":28406,"BSTAR":0.00024301,"MEAN_MOTION_DOT":7.207e-5,"MEAN_MOTION_DDOT":0},{"OBJECT_NAME":"STARLINK-34102","OBJECT_ID":"2025-092C","EPOCH":"2026-03-09T07:35:32.619264","MEAN_MOTION":15.27586538,"ECCENTRICITY":0.00028839,"INCLINATION":42.996,"RA_OF_ASC_NODE":174.99,"ARG_OF_PERICENTER":287.5532,"MEAN_ANOMALY":72.5004,"EPHEMERIS_TYPE":0,"CLASSIFICATION_TYPE":"U","NORAD_CAT_ID":63806,"ELEMENT_SET_NO":999,"REV_AT_EPOCH":4860,"BSTAR":0.0010761589,"MEAN_MOTION_DOT":0.00029478,"MEAN_MOTION_DDOT":0}]
