CELESTIS-17 & SHERPA-FX1
1 47486U 21006CB  26068.64311433  .00007207  00000+0  24301-3 0  9993
2 47486  97.2397 112.1052 0006630 178.1385 181.9882 15.30994801284065
STARLINK-34102          
1 63806U 25092C   26068.31634976  .00029478  00000+0  10762-2 0  9999
2 63806  42.9960 174.9900 0002883 287.5532  72.5004 15.27586538 48604
